ORBCOMM FM33 [-]        
1 25983U 99065D   24088.93693315  .00001783  00000+0  63700-3 0  9994
2 25983  45.0288 311.5898 0008610 343.7695  30.6231 14.37470329271941
ORBCOMM FM36 [-]        
1 25984U 99065E   24088.91077520  .00002139  00000+0  78778-3 0  9994
2 25984  45.0407  36.4800 0003562 246.7131 113.3342 14.35343195270386
ORBCOMM FM35 [+]        
1 25985U 99065F   24088.59272058  .00001850  00000+0  69319-3 0  9992
2 25985  45.0407  40.4968 0004623 322.6811  37.3715 14.34963664270731
ORBCOMM FM34 [-]        
1 25986U 99065G   24088.91018817  .00002030  00000+0  75663-3 0  9990
2 25986  45.0400  39.5255 0004840 284.3684  75.6626 14.34924748270899
ORBCOMM FM38 [-]        
1 33060U 08031A   24088.61861494  .00003145  00000+0  46826-3 0  9996
2 33060  48.4396 271.8998 0005874 285.8450  74.1816 14.77203996848788
ORBCOMM FM41 [-]        
1 33061U 08031B   24088.95599764  .00003033  00000+0  45538-3 0  9997
2 33061  48.4430 276.8234 0005073 273.1914 240.8948 14.76940428848338
ORBCOMM FM29 [-]        
1 33062U 08031C   24088.94227493  .00003033  00000+0  45612-3 0  9997
2 33062  48.4386 284.9201 0006894 272.8339 241.2753 14.76859405848245
ORBCOMM FM39 [-]        
1 33063U 08031D   24088.71521410  .00002464  00000+0  38439-3 0  9995
2 33063  48.4403 306.1956 0007811 249.4285 110.5791 14.75905409847918
